#dP2022  7 27  6  0  0.00000000      96 __u+U ITR00 EXT  IAC
## 2220 280800.00000000   900.00000000 59787 0.2500000000000
+  116   C06C07C08C09C10C11C12C13C14C16C19C20C21C22C23C24C25
+        C26C27C28C29C30C32C33C34C35C36C37C38C39C40C41C42C43
+        C44C45C46E01E02E03E04E05E07E08E09E10E11E12E13E14E15
+        E18E19E21E24E25E26E27E30E31E33E34E36G01G02G03G04G05
+        G06G07G08G09G10G11G12G13G14G15G16G17G18G19G20G21G22
+        G23G24G25G26G27G28G29G30G31G32J02J03R01R02R03R04R05
+        R07R08R09R11R12R13R14R15R17R18R19R20R21R24  0  0  0
++        11  9  9 10  9  9  9  8  9 10  9 10 10  9  9  8  9
++         8  8  9 10  9 10  9 10  9  9  8  9 10 11  8  9  9
++         9  9  8  8  8  9  7  7  8  9  7  8  8  9  9  7  7
++         8  8  8  9  8  8  8  8  8  8  7  8  8  8  7  7  8
++         8  8  8  7  9  8  8  7  8  8  8  9  8  8  7  8  8
++         8  8  7  7  8  8  8  8  8  8  9 10  9  8  8  8  8
++         7  9  9  8  7  8  8  9 10  8  8 10  9 10  0  0  0
%c M  cc GPS ccc cccc cccc cccc cccc ccccc ccccc ccccc ccccc
%c cc cc ccc ccc cccc cccc cccc cccc ccccc ccccc ccccc ccccc
%f  0.0000000  0.000000000  0.00000000000  0.000000000000000
%f  0.0000000  0.000000000  0.00000000000  0.000000000000000
%i    0    0    0    0      0      0      0      0         0
%i    0    0    0    0      0      0      0      0         0
/* IAC                                ULTRA-RAPID PREDICTION
/* S/V CLOCKS ARE ALIGNED TO GNSS TIME                      
/* G:C1WC2W R:C1PC2P E:C1XC5X C:C2IC6I J:C1CC2S             
/* PCV:IGS14_2215 OL/AL:FES2004  NONE     YN ORB:CoN CLK:CoN
*  2022 07 27 23 15  0.00000000
PC06  -1504.993720  34215.484694 -24414.358141    485.328270
PC07 -12665.533039  26468.991730  30260.182699   -486.878369
PC08 -15840.989640  38149.874786  -8888.991594    420.501241
PC09   4176.564179  37575.048740 -17758.089775   -914.243931
PC10  -4663.369968  27213.427711  32080.437990    114.501248
PC11  11128.014174  24956.299951   5823.615969   -504.553737
PC12  -3118.520604  19376.112236  19878.262333   -566.373334
PC13 -11306.772407  38526.360851 -13203.088739     36.264790
PC14   8540.791443  14686.634104 -22133.377608    561.458068
PC16  -3119.789647  32448.926922 -26387.901680    143.350809
PC19 -18393.956205 -11001.791956  17879.664282   -302.612953
PC20    812.048151 -15826.090493  22981.303393   -964.404480
PC21 -20849.490987  11417.680993 -14584.757264    -68.789446
PC22 -27802.967938    376.384460   2161.826656   -963.334488
PC23  18186.932777  -2573.782398  21021.704968   -952.380751
PC24  -6655.487188  25975.254425   7768.226675   -967.740365
PC25   9351.633764  15739.417962  21063.124781   -701.363602
PC26 -16365.743595  21077.410323  -8229.369066    703.462409
PC27  10492.163496 -12587.116661 -22612.175953    760.876403
PC28  19525.699224   5779.997241 -19085.650819     94.987907
PC29 -18028.235175 -20959.748226   3775.300939    587.502935
PC30  -5011.080876 -23736.552643 -13816.391963    501.549942
PC32  20837.643999 -11568.670951  14539.971315   -160.543321
PC33  18422.057509  10936.266407 -17891.771376   -268.865727
PC34   5857.328990  24013.223029  12923.748438   -349.228008
PC35 -20068.037936  -6316.513962  18335.125774    385.600073
PC36  -8580.968513 -16412.008411 -20842.587710   -970.967496
PC37  17278.176947 -19822.268977   9337.069704   -922.677286
PC38 -19553.561763  37445.865875   -784.323743     13.124907
PC39  -6621.197670  28535.389431 -30223.653615     -0.127028
PC40 -18731.420170  20015.942216  31949.931694     -1.285100
PC41  27782.670240   -182.297107  -2600.434545   -116.421804
PC42  -2032.810458  15881.896356 -22813.779716    -13.188774
PC43  17667.101057  21369.258277  -3090.925555      5.366670
PC44 -10303.961187  12816.351371  22528.015454    737.913594
PC45 -18169.869297   3018.737162 -20959.080271    820.046105
PC46   5441.663577 -25733.306324  -9262.646635   -455.063509
PE01  24892.032074 -16008.281198    561.683308   -523.458923
PE02 -24828.442667  16122.264823   -371.723467    314.680376
PE03 -19381.802728   7114.723076 -21206.284970   -583.436744
PE04    182.844485 -18218.310029  23335.506084  -1080.770812
PE05 -27606.068191  -8427.568665  -6547.699277   -158.957858
PE07  19659.453288  18811.602826 -11663.370846   -691.355112
PE08    134.912261  18153.279296 -23380.589427   -571.105389
PE09 -19704.007648 -18696.648565  11746.096607   -602.587830
PE10  -4132.634562 -29150.937221   2991.471475   -503.463956
PE11 -10107.418503 -24683.313722  12827.792446   2854.021660
PE12   2294.124418 -28759.213180  -6658.202845    -84.613197
PE13   9764.215814  25123.266777 -12237.313261    430.003080
PE14   7425.462119  20498.932595  14933.310345  -1766.537906
PE15  -2302.656248  28710.698383   6823.732026    730.574791
PE18   4821.917145 -19750.776160 -22578.218685  -1163.630195
PE19  21226.020406  -5041.946091  20013.150419  -4972.316682
PE21  24278.704711  -2432.603724  16764.190249   -748.411396
PE24  -8690.655041 -14304.279795 -24420.141277   -748.587191
PE25 -24158.483215   2200.434297 -16950.271753   -582.547314
PE26  16214.392131   5807.259695 -24078.729383  -1427.037439
PE27   9776.560631  13524.625158  24455.809232   -354.765052
PE30 -11270.608634  21422.361861  17039.415334   -707.163766
PE31  10347.295403 -21365.264735 -17669.693820   -500.651536
PE33  12946.730722 -15343.454584 -21756.297543   -454.324306
PE34 -12837.032975  15570.920784  21645.864655   -488.005296
PE36 -15994.244831  -6832.571051  23945.984402   -408.347584
PG01 -13025.969264  12917.215005  18764.332414    313.087560
PG02  14428.203905   7375.134068 -20393.064946   -650.529871
PG03 -23341.476858  12540.814921   -216.275019   -318.200368
PG04 -18135.702810   3793.792871 -19054.640682   -140.624259
PG05  23212.389654  -3254.783286 -12802.409089    -90.722613
PG06   6659.816202  22922.591256 -11508.775115    402.477619
PG07  -5801.195632  24641.379497  -6723.576309    317.539594
PG08 -22794.873627  -2510.970419  13653.490016    -78.006557
PG09  -7786.611013  13258.223202 -21728.913419   -314.581060
PG10   -142.290034 -16185.187954  21145.794795   -507.293246
PG11  12657.337048  12499.345558 -19734.980560    -10.368234
PG12  24629.535299  -9576.611096   1764.956407   -253.139893
PG13  22470.596910  12338.586670   7141.689247    356.757940
PG14  -2067.258552  17026.665318  20257.359633   -111.085620
PG15  23119.741635      5.930719  12913.988370    -41.987393
PG16 -20814.458898  -3652.486106 -16636.882235   -517.681562
PG17   7576.234130  19395.308905  16888.434121    641.844670
PG18   6093.125702 -24844.470615  -6913.633184    100.160254
PG19  15674.711930  19690.719241   8605.117947    189.429221
PG20  15921.866075   6330.290111 -20233.558101    499.644163
PG21 -15380.648589   2368.530296  22114.752618    160.899612
PG22 -17286.180542 -19138.613806   7143.640863    299.724321
PG23  10894.129699 -18467.037132  15590.018600    -34.733571
PG24  14452.093296  -8846.717554  20052.345170    185.323329
PG25  17510.658125 -17343.943029  -9820.830787    354.168042
PG26 -13164.420094 -10005.630168 -20922.780348    220.607416
PG27 -23409.468665 -12750.386864   2289.036787    220.861253
PG28   7174.140446  13561.609132  22181.589315    337.788551
PG29   8488.944537 -12135.498794 -22097.229284   -537.525514
PG30   1079.083090  26208.729861   3269.329414   -534.877701
PG31  -8453.936324 -20990.847223 -13656.930260   -187.430309
PG32 -11326.990146 -19151.067919  14793.593399   -187.787480
PJ02 -30621.649236  28789.646749   8170.663660     -2.263956
PJ03 -24393.236447  25719.699190  27947.744254     -0.299785
PR01  -4535.781877 -11234.833164  22445.324323     12.171354
PR02 -21820.769661  -7841.381669  10744.565017    525.324431
PR03 -24659.366946    217.687631  -6589.130497     60.917715
PR04 -13712.229408   7728.311819 -20049.037061    152.049980
PR05   4672.189170  11141.680568 -22451.853544     96.924295
PR07  24371.706476   -637.592767   7459.443571     38.479995
PR08  13505.546954  -7983.251509  20159.916460    -66.428722
PR09   9594.848542   6044.654024  22871.623727     68.080733
PR11  15250.051521 -20442.526929    844.425430     32.116056
PR12   4207.896182 -18995.134224 -16457.708928     19.560607
PR13  -8354.218594  -7278.327918 -22983.567699    -25.079741
PR14 -17051.889012  10205.853153 -15960.449714     24.733043
PR15 -15099.732643  20553.708965    181.597357     94.481754
PR17 -11884.165918  -1856.606202  22488.592249    547.266731
PR18  -3971.344737  14534.607828  20576.978886     34.708433
PR19   4713.866782  23412.809215   8968.991048   -197.883992
PR20  12637.196963  19005.987042 -11353.808972    -75.436775
PR21  11320.744619    404.017699 -22864.813289   -320.863986
PR24 -13476.299590 -18113.721965  11861.932396    105.835013
EOF
